OBJECT_NAME,OBJECT_ID,EPOCH,MEAN_MOTION,ECCENTRICITY,INCLINATION,RA_OF_ASC_NODE,ARG_OF_PERICENTER,MEAN_ANOMALY,EPHEMERIS_TYPE,CLASSIFICATION_TYPE,NORAD_CAT_ID,ELEMENT_SET_NO,REV_AT_EPOCH,BSTAR,MEAN_MOTION_DOT,MEAN_MOTION_DDOT
IRIDIUM 154,2018-061F,2026-07-20T12:16:06.520512,14.34217319,.00021992,86.3935,42.8670,88.8576,271.2872,0,U,43574,999,41818,-.939271E-6,.17E-6,0
IRIDIUM 163,2018-061G,2026-07-20T01:45:54.496224,14.34217883,.00021235,86.3935,42.9641,87.7459,272.3980,0,U,43575,999,41809,.19263388E-4,.74E-6,0
IRIDIUM 156,2018-061H,2026-07-20T01:09:22.367520,14.34216885,.00021763,86.3937,42.9825,93.6055,266.5390,0,U,43576,999,41808,.36737274E-4,.123E-5,0
IRIDIUM 164,2018-061J,2026-07-20T12:25:14.512512,14.34217446,.00022308,86.3934,42.8267,88.6496,271.4955,0,U,43577,999,41819,-.19231918E-4,-.34E-6,0
IRIDIUM 159,2018-061K,2026-07-20T06:38:10.450176,14.34217546,.00021056,86.3936,42.8637,87.1425,273.0012,0,U,43578,999,41812,-.2264682E-5,.13E-6,0
IRIDIUM 180,2019-002A,2026-07-20T08:17:54.982464,14.34217035,.00020548,86.3993,339.7372,91.3247,268.8184,0,U,43922,999,39374,-.38934736E-4,-.89E-6,0
IRIDIUM 176,2019-002B,2026-07-20T09:29:15.175392,14.72253164,.00023466,86.6118,339.6550,91.7609,268.3877,0,U,43923,999,40413,.65717078E-4,.439E-5,0
IRIDIUM 168,2019-002C,2026-07-20T08:08:47.044896,14.34217962,.00022058,86.4000,339.8177,91.4748,268.6700,0,U,43924,999,39372,.43808656E-4,.142E-5,0
IRIDIUM 173,2019-002D,2026-07-20T09:30:58.906368,14.34217957,.00020311,86.3992,339.6817,92.9324,267.2104,0,U,43925,999,39371,-.275362E-5,.12E-6,0
IRIDIUM 169,2019-002E,2026-07-20T10:19:38.442720,14.38604699,.00020783,86.4228,11.2909,104.4212,255.7217,0,U,43926,999,39500,.21178938E-4,.85E-6,0
IRIDIUM 172,2019-002F,2026-07-20T09:21:50.948064,14.34218186,.00022138,86.3997,339.6921,92.1485,267.9964,0,U,43927,999,39372,.21323409E-4,.79E-6,0
IRIDIUM 175,2019-002G,2026-07-20T11:27:33.744960,14.43628918,.0005517,86.4506,276.6062,105.2329,254.9482,0,U,43928,999,40378,.4546985E-4,.174E-5,0
IRIDIUM 171,2019-002H,2026-07-20T08:54:27.030816,14.34217255,.00022664,86.4007,340.0099,95.6648,264.4806,0,U,43929,999,39371,.534272E-5,.35E-6,0
IRIDIUM 170,2019-002J,2026-07-20T09:38:08.064672,14.72253746,.0002205,86.6117,339.6545,89.0139,271.1331,0,U,43930,999,40414,.65630486E-4,.438E-5,0
IRIDIUM 167,2019-002K,2026-07-20T08:45:18.955872,14.34217643,.00022677,86.3992,339.7256,98.0182,262.1271,0,U,43931,999,39371,-.231146E-5,.13E-6,0
IRIDIUM 181,2023-068S,2026-07-20T07:33:56.370528,14.43308773,.00023667,86.4474,42.9358,83.9834,276.1637,0,U,56726,999,16721,.44045131E-4,.168E-5,0
IRIDIUM 177,2023-068T,2026-07-20T09:11:36.129120,14.80029466,.00022339,86.1988,313.0322,97.7517,262.3958,0,U,56727,999,17127,.75675802E-4,.599E-5,0
IRIDIUM 174,2023-068U,2026-07-20T09:20:11.027328,14.72258736,.00019423,86.6124,339.8104,92.7334,267.4106,0,U,56728,999,17090,.66992341E-4,.447E-5,0
IRIDIUM 178,2023-068V,2026-07-20T10:33:08.854848,14.80021719,.00022186,86.6543,11.4624,92.0578,268.0898,0,U,56729,999,17128,.11104674E-4,.11E-5,0
IRIDIUM 179,2023-068W,2026-07-20T12:02:48.464448,14.80024138,.0002384,86.6770,20.5134,94.0769,266.0725,0,U,56730,999,17129,.16918417E-4,.154E-5,0
