IRIDIUM 154             
1 43574U 18061F   26201.51118658  .00000017  00000+0 -93927-6 0  9999
2 43574  86.3935  42.8670 0002199  88.8576 271.2872 14.34217319418185
IRIDIUM 163             
1 43575U 18061G   26201.07354741  .00000074  00000+0  19263-4 0  9997
2 43575  86.3935  42.9641 0002123  87.7459 272.3980 14.34217883418098
IRIDIUM 156             
1 43576U 18061H   26201.04817555  .00000123  00000+0  36737-4 0  9992
2 43576  86.3937  42.9825 0002176  93.6055 266.5390 14.34216885418081
IRIDIUM 164             
1 43577U 18061J   26201.51752908 -.00000034  00000+0 -19232-4 0  9999
2 43577  86.3934  42.8267 0002230  88.6496 271.4955 14.34217446418190
IRIDIUM 159             
1 43578U 18061K   26201.27650984  .00000013  00000+0 -22647-5 0  9995
2 43578  86.3936  42.8637 0002105  87.1425 273.0012 14.34217546418127
IRIDIUM 180             
1 43922U 19002A   26201.34577526 -.00000089  00000+0 -38935-4 0  9992
2 43922  86.3993 339.7372 0002054  91.3247 268.8184 14.34217035393744
IRIDIUM 176             
1 43923U 19002B   26201.39531453  .00000439  00000+0  65717-4 0  9992
2 43923  86.6118 339.6550 0002346  91.7609 268.3877 14.72253164404139
IRIDIUM 168             
1 43924U 19002C   26201.33943339  .00000142  00000+0  43809-4 0  9996
2 43924  86.4000 339.8177 0002205  91.4748 268.6700 14.34217962393724
IRIDIUM 173             
1 43925U 19002D   26201.39651512  .00000012  00000+0 -27536-5 0  9999
2 43925  86.3992 339.6817 0002031  92.9324 267.2104 14.34217957393712
IRIDIUM 169             
1 43926U 19002E   26201.43030605  .00000085  00000+0  21179-4 0  9994
2 43926  86.4228  11.2909 0002078 104.4212 255.7217 14.38604699395005
IRIDIUM 172             
1 43927U 19002F   26201.39017301  .00000079  00000+0  21323-4 0  9992
2 43927  86.3997 339.6921 0002213  92.1485 267.9964 14.34218186393724
IRIDIUM 175             
1 43928U 19002G   26201.47747390  .00000174  00000+0  45470-4 0  9995
2 43928  86.4506 276.6062 0005517 105.2329 254.9482 14.43628918403788
IRIDIUM 171             
1 43929U 19002H   26201.37114619  .00000035  00000+0  53427-5 0  9995
2 43929  86.4007 340.0099 0002266  95.6648 264.4806 14.34217255393710
IRIDIUM 170             
1 43930U 19002J   26201.40148223  .00000438  00000+0  65630-4 0  9994
2 43930  86.6117 339.6545 0002205  89.0139 271.1331 14.72253746404146
IRIDIUM 167             
1 43931U 19002K   26201.36480273  .00000013  00000+0 -23115-5 0  9997
2 43931  86.3992 339.7256 0002267  98.0182 262.1271 14.34217643393718
IRIDIUM 181             
1 56726U 23068S   26201.31523577  .00000168  00000+0  44045-4 0  9994
2 56726  86.4474  42.9358 0002366  83.9834 276.1637 14.43308773167213
IRIDIUM 177             
1 56727U 23068T   26201.38305705  .00000599  00000+0  75676-4 0  9995
2 56727  86.1988 313.0322 0002233  97.7517 262.3958 14.80029466171272
IRIDIUM 174             
1 56728U 23068U   26201.38901652  .00000447  00000+0  66992-4 0  9992
2 56728  86.6124 339.8104 0001942  92.7334 267.4106 14.72258736170907
IRIDIUM 178             
1 56729U 23068V   26201.43968582  .00000110  00000+0  11105-4 0  9997
2 56729  86.6543  11.4624 0002218  92.0578 268.0898 14.80021719171288
IRIDIUM 179             
1 56730U 23068W   26201.50194982  .00000154  00000+0  16918-4 0  9997
2 56730  86.6770  20.5134 0002384  94.0769 266.0725 14.80024138171293
